[{"OBJECT_NAME":"FLOCK 4G-36","OBJECT_ID":"2025-009BU","EPOCH":"2026-03-09T16:58:27.533568","MEAN_MOTION":15.27209548,"ECCENTRICITY":0.00034736,"INCLINATION":97.4053,"RA_OF_ASC_NODE":151.0513,"ARG_OF_PERICENTER":324.2456,"MEAN_ANOMALY":35.855,"EPHEMERIS_TYPE":0,"CLASSIFICATION_TYPE":"U","NORAD_CAT_ID":62675,"ELEMENT_SET_NO":999,"REV_AT_EPOCH":6370,"BSTAR":0.00051121743,"MEAN_MOTION_DOT":0.00013573,"MEAN_MOTION_DDOT":0},{"OBJECT_NAME":"DMSP 5D-2 F14 DEB","OBJECT_ID":"1997-012E","EPOCH":"2026-03-09T23:05:42.500544","MEAN_MOTION":15.25086034,"ECCENTRICITY":0.00083151,"INCLINATION":98.7933,"RA_OF_ASC_NODE":208.6058,"ARG_OF_PERICENTER":272.9178,"MEAN_ANOMALY":87.1104,"EPHEMERIS_TYPE":0,"CLASSIFICATION_TYPE":"U","NORAD_CAT_ID":24778,"ELEMENT_SET_NO":999,"REV_AT_EPOCH":51788,"BSTAR":0.0054670036,"MEAN_MOTION_DOT":0.00139299,"MEAN_MOTION_DDOT":0}]
